[Satellite]
VERSION=1.1
NAME=MIDORI II (ADEOS-II)
NICKNAME=MIDORI II (ADEOS-II)
TLE1=1 27597U 02056A   17185.99827948  .00000027  00000-0  28143-4 0  9992
TLE2=2 27597  98.3703 154.8042 0000410  52.1305 307.9913 14.27291899757965
